[
  {
    "COMMENT": "GENERATED VIA SPACETRACK.ORG API",
    "ORIGINATOR": "18 SPCS",
    "NORAD_CAT_ID": "36508",
    "OBJECT_NAME": "CRYOSAT 2",
    "OBJECT_TYPE": "PAYLOAD",
    "CLASSIFICATION_TYPE": "U",
    "INTLDES": "10013A",
    "EPOCH": "2023-08-24 19:53:19",
    "EPOCH_MICROSECONDS": "696416",
    "MEAN_MOTION": "14.5190843",
    "ECCENTRICITY": "0.0003115",
    "INCLINATION": "92.0237",
    "RA_OF_ASC_NODE": "28.9481",
    "ARG_OF_PERICENTER": "174.2866",
    "MEAN_ANOMALY": "185.8377",
    "EPHEMERIS_TYPE": "0",
    "ELEMENT_SET_NO": "999",
    "REV_AT_EPOCH": "70905",
    "BSTAR": "0.000089556",
    "MEAN_MOTION_DOT": "0.00000364",
    "MEAN_MOTION_DDOT": "0",
    "FILE": "3988138",
    "TLE_LINE0": "0 CRYOSAT 2",
    "TLE_LINE1": "1 36508U 10013A   23236.82870019  .00000364  00000-0  89556-4 0  9998",
    "TLE_LINE2": "2 36508  92.0237  28.9481 0003115 174.2866 185.8377 14.51908430709058",
    "OBJECT_ID": "2010-013A",
    "OBJECT_NUMBER": "36508",
    "SEMIMAJOR_AXIS": "7097.559",
    "PERIOD": "99.180",
    "APOGEE": "721.635",
    "PERIGEE": "717.213",
    "DECAYED": "0"
  },
  {
    "COMMENT": "GENERATED VIA SPACETRACK.ORG API",
    "ORIGINATOR": "18 SPCS",
    "NORAD_CAT_ID": "36508",
    "OBJECT_NAME": "CRYOSAT 2",
    "OBJECT_TYPE": "PAYLOAD",
    "CLASSIFICATION_TYPE": "U",
    "INTLDES": "10013A",
    "EPOCH": "2023-08-24 21:32:34",
    "EPOCH_MICROSECONDS": "365408",
    "MEAN_MOTION": "14.51908474",
    "ECCENTRICITY": "0.0003123",
    "INCLINATION": "92.0237",
    "RA_OF_ASC_NODE": "28.9647",
    "ARG_OF_PERICENTER": "174.0918",
    "MEAN_ANOMALY": "186.0326",
    "EPHEMERIS_TYPE": "0",
    "ELEMENT_SET_NO": "999",
    "REV_AT_EPOCH": "70902",
    "BSTAR": "0.000088976",
    "MEAN_MOTION_DOT": "0.00000361",
    "MEAN_MOTION_DDOT": "0",
    "FILE": "3988199",
    "TLE_LINE0": "0 CRYOSAT 2",
    "TLE_LINE1": "1 36508U 10013A   23236.89761997  .00000361  00000-0  88976-4 0  9991",
    "TLE_LINE2": "2 36508  92.0237  28.9647 0003123 174.0918 186.0326 14.51908474709029",
    "OBJECT_ID": "2010-013A",
    "OBJECT_NUMBER": "36508",
    "SEMIMAJOR_AXIS": "7097.559",
    "PERIOD": "99.180",
    "APOGEE": "721.641",
    "PERIGEE": "717.207",
    "DECAYED": "0"
  },
  {
    "COMMENT": "GENERATED VIA SPACETRACK.ORG API",
    "ORIGINATOR": "18 SPCS",
    "NORAD_CAT_ID": "36508",
    "OBJECT_NAME": "CRYOSAT 2",
    "OBJECT_TYPE": "PAYLOAD",
    "CLASSIFICATION_TYPE": "U",
    "INTLDES": "10013A",
    "EPOCH": "2023-08-25 14:05:01",
    "EPOCH_MICROSECONDS": "46688",
    "MEAN_MOTION": "14.5190888",
    "ECCENTRICITY": "0.0003217",
    "INCLINATION": "92.0238",
    "RA_OF_ASC_NODE": "29.1312",
    "ARG_OF_PERICENTER": "172.0116",
    "MEAN_ANOMALY": "188.1143",
    "EPHEMERIS_TYPE": "0",
    "ELEMENT_SET_NO": "999",
    "REV_AT_EPOCH": "70912",
    "BSTAR": "0.000086731",
    "MEAN_MOTION_DOT": "0.00000352",
    "MEAN_MOTION_DDOT": "0",
    "FILE": "3988765",
    "TLE_LINE0": "0 CRYOSAT 2",
    "TLE_LINE1": "1 36508U 10013A   23237.58681767  .00000352  00000-0  86731-4 0  9991",
    "TLE_LINE2": "2 36508  92.0238  29.1312 0003217 172.0116 188.1143 14.51908880709126",
    "OBJECT_ID": "2010-013A",
    "OBJECT_NUMBER": "36508",
    "SEMIMAJOR_AXIS": "7097.558",
    "PERIOD": "99.180",
    "APOGEE": "721.706",
    "PERIGEE": "717.139",
    "DECAYED": "0"
  },
  {
    "COMMENT": "GENERATED VIA SPACETRACK.ORG API",
    "ORIGINATOR": "18 SPCS",
    "NORAD_CAT_ID": "36508",
    "OBJECT_NAME": "CRYOSAT 2",
    "OBJECT_TYPE": "PAYLOAD",
    "CLASSIFICATION_TYPE": "U",
    "INTLDES": "10013A",
    "EPOCH": "2023-08-25 22:21:14",
    "EPOCH_MICROSECONDS": "375232",
    "MEAN_MOTION": "14.51909148",
    "ECCENTRICITY": "0.0003266",
    "INCLINATION": "92.0239",
    "RA_OF_ASC_NODE": "29.2144",
    "ARG_OF_PERICENTER": "171.0529",
    "MEAN_ANOMALY": "189.0737",
    "EPHEMERIS_TYPE": "0",
    "ELEMENT_SET_NO": "999",
    "REV_AT_EPOCH": "70917",
    "BSTAR": "0.000086218",
    "MEAN_MOTION_DOT": "0.0000035",
    "MEAN_MOTION_DDOT": "0",
    "FILE": "3989051",
    "TLE_LINE0": "0 CRYOSAT 2",
    "TLE_LINE1": "1 36508U 10013A   23237.93141638  .00000350  00000-0  86218-4 0  9996",
    "TLE_LINE2": "2 36508  92.0239  29.2144 0003266 171.0529 189.0737 14.51909148709174",
    "OBJECT_ID": "2010-013A",
    "OBJECT_NUMBER": "36508",
    "SEMIMAJOR_AXIS": "7097.557",
    "PERIOD": "99.180",
    "APOGEE": "721.740",
    "PERIGEE": "717.104",
    "DECAYED": "0"
  },
  {
    "COMMENT": "GENERATED VIA SPACETRACK.ORG API",
    "ORIGINATOR": "18 SPCS",
    "NORAD_CAT_ID": "36508",
    "OBJECT_NAME": "CRYOSAT 2",
    "OBJECT_TYPE": "PAYLOAD",
    "CLASSIFICATION_TYPE": "U",
    "INTLDES": "10013A",
    "EPOCH": "2023-08-26 01:39:43",
    "EPOCH_MICROSECONDS": "706304",
    "MEAN_MOTION": "14.51909214",
    "ECCENTRICITY": "0.0003287",
    "INCLINATION": "92.0239",
    "RA_OF_ASC_NODE": "29.2477",
    "ARG_OF_PERICENTER": "170.6384",
    "MEAN_ANOMALY": "189.4885",
    "EPHEMERIS_TYPE": "0",
    "ELEMENT_SET_NO": "999",
    "REV_AT_EPOCH": "70923",
    "BSTAR": "0.000084879",
    "MEAN_MOTION_DOT": "0.00000345",
    "MEAN_MOTION_DDOT": "0",
    "FILE": "3989172",
    "TLE_LINE0": "0 CRYOSAT 2",
    "TLE_LINE1": "1 36508U 10013A   23238.06925586  .00000345  00000-0  84879-4 0  9998",
    "TLE_LINE2": "2 36508  92.0239  29.2477 0003287 170.6384 189.4885 14.51909214709239",
    "OBJECT_ID": "2010-013A",
    "OBJECT_NUMBER": "36508",
    "SEMIMAJOR_AXIS": "7097.557",
    "PERIOD": "99.180",
    "APOGEE": "721.755",
    "PERIGEE": "717.089",
    "DECAYED": "0"
  },
  {
    "COMMENT": "GENERATED VIA SPACETRACK.ORG API",
    "ORIGINATOR": "18 SPCS",
    "NORAD_CAT_ID": "36508",
    "OBJECT_NAME": "CRYOSAT 2",
    "OBJECT_TYPE": "PAYLOAD",
    "CLASSIFICATION_TYPE": "U",
    "INTLDES": "10013A",
    "EPOCH": "2023-08-26 13:14:26",
    "EPOCH_MICROSECONDS": "357280",
    "MEAN_MOTION": "14.51909589",
    "ECCENTRICITY": "0.0003355",
    "INCLINATION": "92.024",
    "RA_OF_ASC_NODE": "29.3643",
    "ARG_OF_PERICENTER": "169.2602",
    "MEAN_ANOMALY": "190.8678",
    "EPHEMERIS_TYPE": "0",
    "ELEMENT_SET_NO": "999",
    "REV_AT_EPOCH": "70926",
    "BSTAR": "0.000086746",
    "MEAN_MOTION_DOT": "0.00000352",
    "MEAN_MOTION_DDOT": "0",
    "FILE": "3989608",
    "TLE_LINE0": "0 CRYOSAT 2",
    "TLE_LINE1": "1 36508U 10013A   23238.55169395  .00000352  00000-0  86746-4 0  9993",
    "TLE_LINE2": "2 36508  92.0240  29.3643 0003355 169.2602 190.8678 14.51909589709264",
    "OBJECT_ID": "2010-013A",
    "OBJECT_NUMBER": "36508",
    "SEMIMAJOR_AXIS": "7097.555",
    "PERIOD": "99.180",
    "APOGEE": "721.802",
    "PERIGEE": "717.039",
    "DECAYED": "0"
  },
  {
    "COMMENT": "GENERATED VIA SPACETRACK.ORG API",
    "ORIGINATOR": "18 SPCS",
    "NORAD_CAT_ID": "36508",
    "OBJECT_NAME": "CRYOSAT 2",
    "OBJECT_TYPE": "PAYLOAD",
    "CLASSIFICATION_TYPE": "U",
    "INTLDES": "10013A",
    "EPOCH": "2023-08-26 21:30:39",
    "EPOCH_MICROSECONDS": "677184",
    "MEAN_MOTION": "14.51909783",
    "ECCENTRICITY": "0.0003402",
    "INCLINATION": "92.024",
    "RA_OF_ASC_NODE": "29.4475",
    "ARG_OF_PERICENTER": "168.2925",
    "MEAN_ANOMALY": "191.8362",
    "EPHEMERIS_TYPE": "0",
    "ELEMENT_SET_NO": "999",
    "REV_AT_EPOCH": "70931",
    "BSTAR": "0.000083358",
    "MEAN_MOTION_DOT": "0.00000339",
    "MEAN_MOTION_DDOT": "0",
    "FILE": "3989878",
    "TLE_LINE0": "0 CRYOSAT 2",
    "TLE_LINE1": "1 36508U 10013A   23238.89629256  .00000339  00000-0  83358-4 0  9998",
    "TLE_LINE2": "2 36508  92.0240  29.4475 0003402 168.2925 191.8362 14.51909783709311",
    "OBJECT_ID": "2010-013A",
    "OBJECT_NUMBER": "36508",
    "SEMIMAJOR_AXIS": "7097.555",
    "PERIOD": "99.180",
    "APOGEE": "721.834",
    "PERIGEE": "717.005",
    "DECAYED": "0"
  },
  {
    "COMMENT": "GENERATED VIA SPACETRACK.ORG API",
    "ORIGINATOR": "18 SPCS",
    "NORAD_CAT_ID": "36508",
    "OBJECT_NAME": "CRYOSAT 2",
    "OBJECT_TYPE": "PAYLOAD",
    "CLASSIFICATION_TYPE": "U",
    "INTLDES": "10013A",
    "EPOCH": "2023-08-27 04:07:38",
    "EPOCH_MICROSECONDS": "327232",
    "MEAN_MOTION": "14.51909987",
    "ECCENTRICITY": "0.0003441",
    "INCLINATION": "92.0241",
    "RA_OF_ASC_NODE": "29.5141",
    "ARG_OF_PERICENTER": "167.4785",
    "MEAN_ANOMALY": "192.6508",
    "EPHEMERIS_TYPE": "0",
    "ELEMENT_SET_NO": "999",
    "REV_AT_EPOCH": "70939",
    "BSTAR": "0.000084851",
    "MEAN_MOTION_DOT": "0.00000345",
    "MEAN_MOTION_DDOT": "0",
    "FILE": "3990138",
    "TLE_LINE0": "0 CRYOSAT 2",
    "TLE_LINE1": "1 36508U 10013A   23239.17197138  .00000345  00000-0  84851-4 0  9995",
    "TLE_LINE2": "2 36508  92.0241  29.5141 0003441 167.4785 192.6508 14.51909987709396",
    "OBJECT_ID": "2010-013A",
    "OBJECT_NUMBER": "36508",
    "SEMIMAJOR_AXIS": "7097.554",
    "PERIOD": "99.180",
    "APOGEE": "721.861",
    "PERIGEE": "716.977",
    "DECAYED": "0"
  },
  {
    "COMMENT": "GENERATED VIA SPACETRACK.ORG API",
    "ORIGINATOR": "18 SPCS",
    "NORAD_CAT_ID": "36508",
    "OBJECT_NAME": "CRYOSAT 2",
    "OBJECT_TYPE": "PAYLOAD",
    "CLASSIFICATION_TYPE": "U",
    "INTLDES": "10013A",
    "EPOCH": "2023-08-27 09:05:22",
    "EPOCH_MICROSECONDS": "310880",
    "MEAN_MOTION": "14.51910146",
    "ECCENTRICITY": "0.0003467",
    "INCLINATION": "92.0241",
    "RA_OF_ASC_NODE": "29.5641",
    "ARG_OF_PERICENTER": "166.9615",
    "MEAN_ANOMALY": "193.1683",
    "EPHEMERIS_TYPE": "0",
    "ELEMENT_SET_NO": "999",
    "REV_AT_EPOCH": "70938",
    "BSTAR": "0.000084139",
    "MEAN_MOTION_DOT": "0.00000342",
    "MEAN_MOTION_DDOT": "0",
    "FILE": "3990390",
    "TLE_LINE0": "0 CRYOSAT 2",
    "TLE_LINE1": "1 36508U 10013A   23239.37873045  .00000342  00000-0  84139-4 0  9991",
    "TLE_LINE2": "2 36508  92.0241  29.5641 0003467 166.9615 193.1683 14.51910146709383",
    "OBJECT_ID": "2010-013A",
    "OBJECT_NUMBER": "36508",
    "SEMIMAJOR_AXIS": "7097.554",
    "PERIOD": "99.180",
    "APOGEE": "721.879",
    "PERIGEE": "716.958",
    "DECAYED": "0"
  }
]